SAUDISAT 1C (SO-50)     
1 27607U 02058C   26197.28549759  .00000351  00000+0  59480-4 0  9999
2 27607  64.5519  38.9516 0074489 257.0714 102.2066 14.83099465268770
SAUDISAT 2              
1 28371U 04025F   26196.94702248  .00000091  00000+0  31378-4 0  9997
2 28371  98.5521 197.6738 0024111 205.8266 154.1730 14.56698464169934
SAUDISAT 3              
1 31118U 07012B   26197.29548228  .00000093  00000+0  23183-4 0  9991
2 31118  98.1468 147.7176 0015654 131.4500 228.8054 14.71440595 32026
PISAT                   
1 41784U 16059B   26196.95644708  .00000435  00000+0  81603-4 0  9995
2 41784  97.8191 196.1748 0030459 112.4897 247.9539 14.69030442523967
FLYING LAPTOP           
1 42831U 17042G   26197.31311774  .00001786  00000+0  14276-3 0  9998
2 42831  97.4809 351.7505 0019645  28.9665 331.2646 15.01316774490827
SALSAT                  
1 46495U 20068K   26197.24901140  .00003822  00000+0  13369-3 0  9999
2 46495  97.8856 202.0925 0009321 188.9749 171.1325 15.30180346319806
